NORAD_CAT_ID,OBJECT_NAME,OBJECT_TYPE,EPOCH,MEAN_MOTION,ECCENTRICITY,INCLINATION,RA_OF_ASC_NODE,ARG_OF_PERICENTER,MEAN_ANOMALY,BSTAR,MEAN_MOTION_DOT,MEAN_MOTION_DDOT,TLE_LINE0,TLE_LINE1,TLE_LINE2,SEMIMAJOR_AXIS,PERIOD,APOGEE,PERIGEE,DECAYED
52455.0,STARLINK-3890,PAYLOAD,2024-04-08 08:17:36,15.08826595,0.0001238,53.2173,333.0901,96.3297,263.7836,-0.00028927,-4.887e-05,0.0,0 STARLINK-3890,1 52455U 22049E   24099.34555964 -.00004887  00000-0 -28927-3 0  9993,2 52455  53.2173 333.0901 0001238  96.3297 263.7836 15.08826595106385,6917.921,95.438,540.643,538.93,0.0
52455.0,STARLINK-3890,PAYLOAD,2024-04-08 22:36:05,15.08818436,0.0001228,53.2172,330.4129,88.7799,271.3334,3.4734e-05,2.65e-06,0.0,0 STARLINK-3890,1 52455U 22049E   24099.94172844  .00000265  00000-0  34734-4 0  9999,2 52455  53.2172 330.4129 0001228  88.7799 271.3334 15.08818436106471,6917.946,95.439,540.661,538.962,0.0
52455.0,STARLINK-3890,PAYLOAD,2024-04-09 08:08:24,15.08820955,0.0001307,53.2175,328.6292,88.943,271.1711,-9.0668e-06,-4.32e-06,0.0,0 STARLINK-3890,1 52455U 22049E   24100.33917051 -.00000432  00000-0 -90668-5 0  9999,2 52455  53.2175 328.6292 0001307  88.9430 271.1711 15.08820955106696,6917.939,95.439,540.708,538.899,0.0
52455.0,STARLINK-3890,PAYLOAD,2024-04-09 22:26:52,15.08831636,0.0001256,53.2166,325.9523,88.3762,271.7374,0.0004928,7.562e-05,0.0,0 STARLINK-3890,1 52455U 22049E   24100.93533503  .00007562  00000-0  49280-3 0  9992,2 52455  53.2166 325.9523 0001256  88.3762 271.7374 15.08831636106620,6917.906,95.438,540.64,538.902,0.0
52455.0,STARLINK-3890,PAYLOAD,2024-04-10 07:59:11,15.08847493,0.0001254,53.2167,324.1671,80.1243,279.9891,0.00068818,0.00010684,0.0,0 STARLINK-3890,1 52455U 22049E   24101.33277241  .00010684  00000-0  68818-3 0  9998,2 52455  53.2167 324.1671 0001254  80.1243 279.9891 15.08847493106844,6917.857,95.437,540.59,538.855,0.0
52455.0,STARLINK-3890,PAYLOAD,2024-04-10 14:20:44,15.08847136,0.0001692,53.2164,322.9804,80.4602,279.6581,0.00047683,7.31e-05,0.0,0 STARLINK-3890,1 52455U 22049E   24101.59773430  .00007310  00000-0  47683-3 0  9996,2 52455  53.2164 322.9804 0001692  80.4602 279.6581 15.08847136106727,6917.859,95.437,540.894,538.553,0.0
52455.0,STARLINK-3890,PAYLOAD,2024-04-10 20:42:16,15.08837796,0.0001314,53.2153,321.7886,80.8785,279.2356,0.00022757,3.336e-05,0.0,0 STARLINK-3890,1 52455U 22049E   24101.86269592  .00003336  00000-0  22757-3 0  9994,2 52455  53.2153 321.7886 0001314  80.8785 279.2356 15.08837796106928,6917.887,95.438,540.661,538.843,0.0
52455.0,STARLINK-3890,PAYLOAD,2024-04-10 22:17:39,15.08842985,0.0001331,53.2169,321.4913,83.6899,276.4245,0.00037844,5.741e-05,0.0,0 STARLINK-3890,1 52455U 22049E   24101.92893481  .00005741  00000-0  37844-3 0  9996,2 52455  53.2169 321.4913 0001331  83.6899 276.4245 15.08842985106774,6917.871,95.437,540.657,538.815,0.0
52455.0,STARLINK-3890,PAYLOAD,2024-04-11 07:49:58,15.08854428,0.0001326,53.2167,319.7073,82.8142,277.3001,0.00050827,7.814e-05,0.0,0 STARLINK-3890,1 52455U 22049E   24102.32637026  .00007814  00000-0  50827-3 0  9991,2 52455  53.2167 319.7073 0001326  82.8142 277.3001 15.08854428106994,6917.836,95.437,540.619,538.784,0.0
52455.0,STARLINK-3890,PAYLOAD,2024-04-11 20:33:03,15.08841655,0.0001303,53.217,317.3262,89.1763,270.9378,0.00012031,1.627e-05,0.0,0 STARLINK-3890,1 52455U 22049E   24102.85629313  .00001627  00000-0  12031-3 0  9990,2 52455  53.2170 317.3262 0001303  89.1763 270.9378 15.08841655107070,6917.875,95.437,540.642,538.839,0.0
52455.0,STARLINK-3890,PAYLOAD,2024-04-11 23:43:50,15.08843835,0.0001473,53.2147,316.7344,83.2374,276.8786,0.00023631,3.475e-05,0.0,0 STARLINK-3890,1 52455U 22049E   24102.98877333  .00003475  00000-0  23631-3 0  9992,2 52455  53.2147 316.7344 0001473  83.2374 276.8786 15.08843835106933,6917.869,95.437,540.753,538.715,0.0
52455.0,STARLINK-3890,PAYLOAD,2024-04-12 23:34:36,15.08848773,0.0001388,53.2161,312.2707,92.3004,267.8147,0.00044901,6.867e-05,0.0,0 STARLINK-3890,1 52455U 22049E   24103.98237209  .00006867  00000-0  44901-3 0  9996,2 52455  53.2161 312.2707 0001388  92.3004 267.8147 15.08848773107241,6917.854,95.437,540.679,538.758,0.0
52455.0,STARLINK-3890,PAYLOAD,2024-04-13 20:14:37,15.08841226,0.0001251,53.2167,308.4032,93.8382,266.2753,9.6067e-05,1.241e-05,0.0,0 STARLINK-3890,1 52455U 22049E   24104.84349312  .00001241  00000-0  96067-4 0  9993,2 52455  53.2167 308.4032 0001251  93.8382 266.2753 15.08841226107375,6917.877,95.437,540.607,538.876,0.0
52455.0,STARLINK-3890,PAYLOAD,2024-04-14 20:05:24,15.08841192,0.000141,53.2172,303.9469,108.2703,251.8442,0.0001779,2.545e-05,0.0,0 STARLINK-3890,1 52455U 22049E   24105.83709466  .00002545  00000-0  17790-3 0  9996,2 52455  53.2172 303.9469 0001410 108.2703 251.8442 15.08841192107366,6917.877,95.437,540.717,538.766,0.0
52455.0,STARLINK-3890,PAYLOAD,2024-04-14 23:16:11,15.08841759,0.0001358,53.2171,303.3507,101.7404,258.374,0.00016641,2.362e-05,0.0,0 STARLINK-3890,1 52455U 22049E   24105.96957455  .00002362  00000-0  16641-3 0  9994,2 52455  53.2171 303.3507 0001358 101.7404 258.3740 15.08841759107541,6917.875,95.437,540.679,538.801,0.0
52455.0,STARLINK-3890,PAYLOAD,2024-04-15 13:34:39,15.08841017,0.0001395,53.2173,300.6736,101.5314,258.5835,0.00016695,2.37e-05,0.0,0 STARLINK-3890,1 52455U 22049E   24106.56573522  .00002370  00000-0  16695-3 0  9998,2 52455  53.2173 300.6736 0001395 101.5314 258.5835 15.08841017107472,6917.877,95.437,540.707,538.777,0.0
52455.0,STARLINK-3890,PAYLOAD,2024-04-15 19:56:12,15.088412,0.0001345,53.2167,299.4855,81.0782,279.0362,0.00014381,2.002e-05,0.0,0 STARLINK-3890,1 52455U 22049E   24106.83069615  .00002002  00000-0  14381-3 0  9993,2 52455  53.2167 299.4855 0001345  81.0782 279.0362 15.08841200107510,6917.877,95.437,540.672,538.811,0.0
52455.0,STARLINK-3890,PAYLOAD,2024-04-16 11:50:03,15.08850114,0.0002117,53.2185,296.5148,111.2772,248.8446,0.00018079,2.591e-05,0.0,0 STARLINK-3890,1 52455U 22049E   24107.49309092  .00002591  00000-0  18079-3 0  9993,2 52455  53.2185 296.5148 0002117 111.2772 248.8446 15.08850114107775,6917.849,95.437,541.179,538.25,0.0
52455.0,STARLINK-3890,PAYLOAD,2024-04-16 18:11:35,15.08845401,0.0001743,53.219,295.3242,104.3565,255.7621,0.0001478,2.065e-05,0.0,0 STARLINK-3890,1 52455U 22049E   24107.75805305  .00002065  00000-0  14780-3 0  9991,2 52455  53.2190 295.3242 0001743 104.3565 255.7621 15.08845401107810,6917.864,95.437,540.935,538.523,0.0
52455.0,STARLINK-3890,PAYLOAD,2024-04-17 11:40:50,15.08844291,0.0001418,53.2169,292.0517,81.2957,278.8196,8.4671e-05,1.06e-05,0.0,0 STARLINK-3890,1 52455U 22049E   24108.48669214  .00001060  00000-0  84671-4 0  9990,2 52455  53.2169 292.0517 0001418  81.2957 278.8196 15.08844291107765,6917.867,95.437,540.713,538.751,0.0
52455.0,STARLINK-3890,PAYLOAD,2024-04-17 19:37:46,15.08825611,0.000146,53.2172,290.5641,67.1323,292.9823,-0.00014934,-2.663e-05,0.0,0 STARLINK-3890,1 52455U 22049E   24108.81790424 -.00002663  00000-0 -14934-3 0  9991,2 52455  53.2172 290.5641 0001460  67.1323 292.9823 15.08825611107979,6917.924,95.438,540.799,538.779,0.0
52455.0,STARLINK-3890,PAYLOAD,2024-04-18 11:31:38,15.08830156,0.0001764,53.2161,287.5861,132.4274,227.6868,-4.8434e-05,-1.059e-05,0.0,0 STARLINK-3890,1 52455U 22049E   24109.48030393 -.00001059  00000-0 -48434-4 0  9998,2 52455  53.2161 287.5861 0001764 132.4274 227.6868 15.08830156108071,6917.91,95.438,540.996,538.555,0.0
52455.0,STARLINK-3890,PAYLOAD,2024-04-18 17:53:10,15.08838808,0.0001475,53.2169,286.4007,99.5949,260.521,0.00022797,3.342e-05,0.0,0 STARLINK-3890,1 52455U 22049E   24109.74526226  .00003342  00000-0  22797-3 0  9990,2 52455  53.2169 286.4007 0001475  99.5949 260.5210 15.08838808107955,6917.884,95.438,540.769,538.729,0.0
52455.0,STARLINK-3890,PAYLOAD,2024-04-19 11:22:24,15.08861328,0.0001428,53.2159,283.1281,95.3742,264.7413,0.00074745,0.00011635,0.0,0 STARLINK-3890,1 52455U 22049E   24110.47389400  .00011635  00000-0  74745-3 0  9997,2 52455  53.2159 283.1281 0001428  95.3742 264.7413 15.08861328108220,6917.815,95.436,540.668,538.692,0.0
52455.0,STARLINK-3890,PAYLOAD,2024-04-19 17:43:56,15.08881876,0.0001484,53.2158,281.9393,87.0043,273.1119,0.0011195,0.00017594,0.0,0 STARLINK-3890,1 52455U 22049E   24110.73884787  .00017594  00000-0  11195-2 0  9993,2 52455  53.2158 281.9393 0001484  87.0043 273.1119 15.08881876108107,6917.752,95.435,540.644,538.591,0.0
52455.0,STARLINK-3890,PAYLOAD,2024-04-20 14:23:56,15.08862796,0.0001717,53.2165,278.0715,126.7792,233.3358,0.00037394,5.672e-05,0.0,0 STARLINK-3890,1 52455U 22049E   24111.59995892  .00005672  00000-0  37394-3 0  9992,2 52455  53.2165 278.0715 0001717 126.7792 233.3358 15.08862796108238,6917.811,95.436,540.863,538.488,0.0
52455.0,STARLINK-3890,PAYLOAD,2024-04-20 17:34:42,15.08836578,0.0001362,53.2162,277.4767,118.9035,241.2094,-0.00045076,-7.454e-05,0.0,0 STARLINK-3890,1 52455U 22049E   24111.73243954 -.00007454  00000-0 -45076-3 0  9991,2 52455  53.2162 277.4767 0001362 118.9035 241.2094 15.08836578108418,6917.891,95.438,540.698,538.814,0.0
52455.0,STARLINK-3890,PAYLOAD,2024-04-21 14:14:45,15.08819518,0.0001654,53.2173,273.6087,122.8322,237.2829,0.00039521,6.004e-05,0.0,0 STARLINK-3890,1 52455U 22049E   24112.59357642  .00006004  00000-0  39521-3 0  9992,2 52455  53.2173 273.6087 0001654 122.8322 237.2829 15.08819518108382,6917.943,95.439,540.952,538.664,0.0
52455.0,STARLINK-3890,PAYLOAD,2024-04-21 17:25:31,15.08824352,0.0001395,53.2171,273.0148,115.2981,244.8156,-6.8722e-05,-1.381e-05,0.0,0 STARLINK-3890,1 52455U 22049E   24112.72605595 -.00001381  00000-0 -68722-4 0  9991,2 52455  53.2171 273.0148 0001395 115.2981 244.8156 15.08824352108403,6917.928,95.439,540.758,538.828,0.0
52455.0,STARLINK-3890,PAYLOAD,2024-04-22 10:54:46,15.08827066,0.0001359,53.2172,269.7435,115.9275,244.1858,0.00030715,4.602e-05,0.0,0 STARLINK-3890,1 52455U 22049E   24113.45470567  .00004602  00000-0  30715-3 0  9998,2 52455  53.2172 269.7435 0001359 115.9275 244.1858 15.08827066108674,6917.92,95.438,540.725,538.845,0.0
